OBJECT_NAME,OBJECT_ID,EPOCH,MEAN_MOTION,ECCENTRICITY,INCLINATION,RA_OF_ASC_NODE,ARG_OF_PERICENTER,MEAN_ANOMALY,EPHEMERIS_TYPE,CLASSIFICATION_TYPE,NORAD_CAT_ID,ELEMENT_SET_NO,REV_AT_EPOCH,BSTAR,MEAN_MOTION_DOT,MEAN_MOTION_DDOT
COSMOS 2251 DEB,1993-036BSA,2024-12-31T21:26:22.012512,14.35224445,0.0025458,74.0203,223.3389,36.0201,324.2661,0,U,38068,999,61683,7.25E-04,2.06E-05,0
COSMOS 2251 DEB,1993-036BSE,2024-12-30T15:12:24.022368,14.90808096,0.0001896,74.0349,343.8534,261.5074,98.5893,0,U,38190,999,693,1.04E-02,1.04E-03,0
COSMOS 2251 DEB,1993-036BSM,2024-12-31T13:01:40.710720,14.57512786,0.0166235,73.947,308.1436,262.6715,95.553,0,U,38197,999,80682,6.88E-03,3.80E-04,0
COSMOS 2251 DEB,1993-036BSP,2024-12-17T02:59:11.975424,13.63909938,0.0373486,73.9574,294.2813,292.0691,64.1157,0,U,38199,999,56103,1.76E-03,2.22E-05,0
COSMOS 2251 DEB,1993-036BSY,2024-12-31T20:18:00.196704,14.69230271,0.0010288,74.0122,37.7692,255.0954,278.3699,0,U,38208,999,66053,5.73E-03,3.39E-04,0
COSMOS 2251 DEB,1993-036BTC,2024-12-29T19:50:57.037056,14.74706789,0.0098518,74.0543,37.2872,197.2687,162.513,0,U,38212,999,76464,1.03E-03,7.42E-05,0
COSMOS 2251 DEB,1993-036BTL,2024-12-31T19:51:55.084032,14.73442498,0.0004982,74.0216,33.8015,248.596,111.4681,0,U,38220,999,66242,4.59E-03,2.99E-04,0
COSMOS 2251 DEB,1993-036BTP,2024-12-25T14:12:03.854592,14.33233022,0.0095182,74.0099,111.8963,304.8359,65.95,0,U,38479,999,77877,4.85E-03,1.40E-04,0
COSMOS 2251 DEB,1993-036BTR,2024-12-29T10:16:49.445184,13.92658106,0.0237353,73.9334,248.5654,259.1988,98.2346,0,U,38481,999,54207,2.99E-03,4.84E-05,0
COSMOS 2251 DEB,1993-036BTT,2024-12-26T01:13:22.442016,14.26281482,0.0116356,74.2638,279.9838,131.5121,229.6085,0,U,38483,999,58459,1.78E-03,4.57E-05,0
COSMOS 2251 DEB,1993-036BTV,2024-12-31T02:18:59.113728,14.96278026,0.0030632,73.9988,141.9349,15.3007,344.9096,0,U,38485,999,12359,5.55E-03,6.39E-04,0
COSMOS 2251 DEB,1993-036BTW,2024-12-31T17:05:21.883776,14.6021276,0.0040404,73.9456,156.141,16.4119,355.6114,0,U,38486,999,70361,5.74E-03,2.81E-04,0
COSMOS 2251 DEB,1993-036BTX,2024-12-30T19:13:42.979296,14.93125419,0.0053013,73.9918,25.9467,279.5096,80.0098,0,U,38487,999,74831,4.35E-03,4.69E-04,0
COSMOS 2251 DEB,1993-036BTY,2024-12-26T18:37:16.637664,14.67130152,0.0061837,74.0427,184.2534,19.2908,352.2471,0,U,39109,999,60020,1.14E-03,6.58E-05,0
COSMOS 2251 DEB,1993-036BTZ,2024-12-29T19:16:38.748000,14.69716164,0.0101851,73.9602,20.6993,334.3697,199.397,0,U,39110,999,57367,1.06E-03,6.83E-05,0
COSMOS 2251 DEB,1993-036BUA,2024-12-30T18:53:40.752672,14.79233427,0.0006042,74.0192,20.9466,213.7924,146.2868,0,U,39111,999,3963,7.70E-03,5.77E-04,0
COSMOS 2251 DEB,1993-036BUC,2024-12-28T23:56:34.174464,14.80712108,0.0056391,74.0014,112.5231,358.1718,1.9242,0,U,39546,999,59254,2.63E-03,2.08E-04,0
COSMOS 2251 DEB,1993-036BUD,2024-12-31T10:04:54.435072,14.7769493,0.0007365,74.0118,352.5896,237.4614,274.2892,0,U,39547,999,58867,6.09E-03,4.39E-04,0
COSMOS 2251 DEB,1993-036BUJ,2024-12-29T12:45:39.395808,15.68106541,0.0030563,73.9749,94.868,349.0524,11.0029,0,U,39552,999,70969,1.37E-02,1.77E-02,0
COSMOS 2251 DEB,1993-036BUK,2024-12-31T07:10:11.326080,13.97955163,0.0213866,74.0296,209.2445,63.4348,298.8529,0,U,39553,999,70772,3.27E-03,5.62E-05,0
COSMOS 2251 DEB,1993-036BUL,2024-12-26T16:45:37.585152,14.84306832,0.0012537,74.0247,254.4379,137.798,252.0534,0,U,39554,999,59135,3.40E-03,2.87E-04,0
COSMOS 2251 DEB,1993-036BUN,2024-12-30T18:53:45.270528,14.52232548,0.015577,73.9322,189.9171,21.2205,339.532,0,U,39583,999,73543,4.33E-03,2.06E-04,0
COSMOS 2251 DEB,1993-036BUQ,2024-12-30T09:23:58.845984,14.57380638,0.0067127,74.0416,241.8987,92.1755,268.7097,0,U,39585,999,57458,7.47E-04,3.47E-05,0
COSMOS 2251 DEB,1993-036BUR,2024-12-28T17:14:06.179712,14.20183027,0.010318,74.0101,134.3621,349.6204,73.836,0,U,39586,999,56015,9.71E-04,2.16E-05,0
COSMOS 2251 DEB,1993-036BUW,2024-12-31T17:41:25.764000,14.40454297,0.002992,74.0196,167.9555,5.016,6.37,0,U,39591,999,56792,1.38E-03,4.38E-05,0
COSMOS 2251 DEB,1993-036BUX,2024-12-30T17:48:32.316480,14.40336766,0.001707,74.0297,171.2634,341.7499,18.3041,0,U,40218,999,53863,1.39E-03,4.41E-05,0
COSMOS 2251 DEB,1993-036BVC,2024-12-30T10:49:17.786784,14.75255774,0.0032767,73.9477,65.2381,318.4021,52.8511,0,U,40223,999,69914,7.06E-03,4.85E-04,0
COSMOS 2251 DEB,1993-036BVD,2024-12-30T05:26:39.791616,15.09635571,0.0054881,73.9727,179.3795,197.4578,338.4648,0,U,40224,999,65844,7.57E-03,1.28E-03,0
COSMOS 2251 DEB,1993-036BVH,2024-12-31T18:04:44.626656,14.39940979,0.0024241,74.0536,179.6323,328.8977,42.4618,0,U,40228,999,53939,1.08E-03,3.38E-05,0
COSMOS 2251 DEB,1993-036BVK,2024-12-29T17:18:26.352576,14.46462148,0.0019313,74.0415,158.0189,302.6569,68.7987,0,U,40230,999,53934,2.31E-03,8.31E-05,0
