COSMOS 2251 DEB         
1 38068U 93036BSA 24366.89331033  .00002055  00000+0  72464-3 0  9994
2 38068  74.0203 223.3389 0025458  36.0201 324.2661 14.35224445616831
COSMOS 2251 DEB         
1 38190U 93036BSE 24365.63361137  .00104057  00000+0  10417-1 0  9992
2 38190  74.0349 343.8534 0001896 261.5074  98.5893 14.90808096  6934
COSMOS 2251 DEB         
1 38197U 93036BSM 24366.54283230  .00038011  00000+0  68841-2 0  9998
2 38197  73.9470 308.1436 0166235 262.6715  95.5530 14.57512786806824
COSMOS 2251 DEB         
1 38199U 93036BSP 24352.12444416  .00002216  00000+0  17566-2 0  9990
2 38199  73.9574 294.2813 0373486 292.0691  64.1157 13.63909938561036
COSMOS 2251 DEB         
1 38208U 93036BSY 24366.84583561  .00033942  00000+0  57306-2 0  9996
2 38208  74.0122  37.7692 0010288 255.0954 278.3699 14.69230271660531
COSMOS 2251 DEB         
1 38212U 93036BTC 24364.82704904  .00007423  00000+0  10309-2 0  9990
2 38212  74.0543  37.2872 0098518 197.2687 162.5130 14.74706789764649
COSMOS 2251 DEB         
1 38220U 93036BTL 24366.82772088  .00029910  00000+0  45922-2 0  9993
2 38220  74.0216  33.8015 0004982 248.5960 111.4681 14.73442498662422
COSMOS 2251 DEB         
1 38479U 93036BTP 24360.59171128  .00014041  00000+0  48547-2 0  9990
2 38479  74.0099 111.8963 0095182 304.8359  65.9500 14.33233022778772
COSMOS 2251 DEB         
1 38481U 93036BTR 24364.42835006  .00004835  00000+0  29853-2 0  9990
2 38481  73.9334 248.5654 0237353 259.1988  98.2346 13.92658106542075
COSMOS 2251 DEB         
1 38483U 93036BTT 24361.05095419  .00004571  00000+0  17818-2 0  9999
2 38483  74.2638 279.9838 0116356 131.5121 229.6085 14.26281482584591
COSMOS 2251 DEB         
1 38485U 93036BTV 24366.09651752  .00063853  00000+0  55512-2 0  9999
2 38485  73.9988 141.9349 0030632  15.3007 344.9096 14.96278026123595
COSMOS 2251 DEB         
1 38486U 93036BTW 24366.71205884  .00028103  00000+0  57446-2 0  9997
2 38486  73.9456 156.1410 0040404  16.4119 355.6114 14.60212760703618
COSMOS 2251 DEB         
1 38487U 93036BTX 24365.80119189  .00046906  00000+0  43507-2 0  9993
2 38487  73.9918  25.9467 0053013 279.5096  80.0098 14.93125419748319
COSMOS 2251 DEB         
1 39109U 93036BTY 24361.77588701  .00006579  00000+0  11420-2 0  9998
2 39109  74.0427 184.2534 0061837  19.2908 352.2471 14.67130152600201
COSMOS 2251 DEB         
1 39110U 93036BTZ 24364.80322625  .00006825  00000+0  10620-2 0  9993
2 39110  73.9602  20.6993 0101851 334.3697 199.3970 14.69716164573674
COSMOS 2251 DEB         
1 39111U 93036BUA 24365.78727723  .00057656  00000+0  76957-2 0  9993
2 39111  74.0192  20.9466 0006042 213.7924 146.2868 14.79233427 39635
COSMOS 2251 DEB         
1 39546U 93036BUC 24363.99761776  .00020818  00000+0  26292-2 0  9999
2 39546  74.0014 112.5231 0056391 358.1718   1.9242 14.80712108592542
COSMOS 2251 DEB         
1 39547U 93036BUD 24366.42007448  .00043913  00000+0  60905-2 0  9990
2 39547  74.0118 352.5896 0007365 237.4614 274.2892 14.77694930588675
COSMOS 2251 DEB         
1 39552U 93036BUJ 24364.53170597  .01771225  00000+0  13724-1 0  9993
2 39552  73.9749  94.8680 0030563 349.0524  11.0029 15.68106541709695
COSMOS 2251 DEB         
1 39553U 93036BUK 24366.29874220  .00005622  00000+0  32733-2 0  9995
2 39553  74.0296 209.2445 0213866  63.4348 298.8529 13.97955163707720
COSMOS 2251 DEB         
1 39554U 93036BUL 24361.69835168  .00028664  00000+0  34020-2 0  9995
2 39554  74.0247 254.4379 0012537 137.7980 252.0534 14.84306832591352
COSMOS 2251 DEB         
1 39583U 93036BUN 24365.78732952  .00020635  00000+0  43291-2 0  9998
2 39583  73.9322 189.9171 0155770  21.2205 339.5320 14.52232548735432
COSMOS 2251 DEB         
1 39585U 93036BUQ 24365.39165331  .00003466  00000+0  74736-3 0  9990
2 39585  74.0416 241.8987 0067127  92.1755 268.7097 14.57380638574588
COSMOS 2251 DEB         
1 39586U 93036BUR 24363.71812708  .00002161  00000+0  97106-3 0  9999
2 39586  74.0101 134.3621 0103180 349.6204  73.8360 14.20183027560159
COSMOS 2251 DEB         
1 39591U 93036BUW 24366.73710375  .00004384  00000+0  13793-2 0  9995
2 39591  74.0196 167.9555 0029920   5.0160   6.3700 14.40454297567923
COSMOS 2251 DEB         
1 40218U 93036BUX 24365.74204070  .00004407  00000+0  13948-2 0  9991
2 40218  74.0297 171.2634 0017070 341.7499  18.3041 14.40336766538634
COSMOS 2251 DEB         
1 40223U 93036BVC 24365.45090031  .00048531  00000+0  70631-2 0  9993
2 40223  73.9477  65.2381 0032767 318.4021  52.8511 14.75255774699147
COSMOS 2251 DEB         
1 40224U 93036BVD 24365.22684944  .00128378  00000+0  75735-2 0  9999
2 40224  73.9727 179.3795 0054881 197.4578 338.4648 15.09635571658442
COSMOS 2251 DEB         
1 40228U 93036BVH 24366.75329429  .00003375  00000+0  10769-2 0  9991
2 40228  74.0536 179.6323 0024241 328.8977  42.4618 14.39940979539390
COSMOS 2251 DEB         
1 40230U 93036BVK 24364.72113834  .00008312  00000+0  23103-2 0  9992
2 40230  74.0415 158.0189 0019313 302.6569  68.7987 14.46462148539341
